PROBA-1                 
1 26958U 01049B   26199.00034691  .00000692  00000+0  48534-4 0  9998
2 26958  97.9601 208.6114 0055471  20.4830 339.8604 15.07620817348268
CUTE-1 (CO-55)          
1 27844U 03031E   26198.94610370  .00000130  00000+0  75281-4 0  9998
2 27844  98.6744 207.1188 0010863  95.5982 264.6436 14.24352549196059
CUBESAT XI-IV (CO-57)   
1 27848U 03031J   26198.95002441  .00000107  00000+0  66203-4 0  9995
2 27848  98.6776 206.8106 0010632 112.1739 248.0569 14.23635431195756
APRIZESAT 4             
1 35684U 09041D   26198.93813731  .00000335  00000+0  46706-4 0  9998
2 35684  98.1402 274.8702 0042404 220.4323 139.3737 14.83915971915929
APRIZESAT 3             
1 35686U 09041F   26198.92737513  .00000419  00000+0  41722-4 0  9998
2 35686  98.2105 353.6317 0060727 326.8056  32.9360 14.96314780920978
PROBA-2                 
1 36037U 09059B   26198.77672274  .00000051  00000+0  22424-4 0  9993
2 36037  98.2461  21.7071 0013186 180.6794 179.4387 14.54874187885978
APRIZESAT 5             
1 37792U 11044E   26198.81352738  .00000343  00000+0  50783-4 0  9997
2 37792  98.2449 132.7237 0050681 264.0265  95.5169 14.81129733803326
APRIZESAT 6             
1 37793U 11044F   26198.57717800  .00000328  00000+0  53815-4 0  9998
2 37793  98.2335 109.6946 0042864 350.6351 130.9243 14.76958656801630
PROBA-V                 
1 39159U 13021A   26198.90379067  .00000003  00000+0  19181-4 0  9997
2 39159  98.3607 175.9974 0005153  53.6186 306.5469 14.23603610685487
APRIZESAT 7             
1 39416U 13066A   26198.81134073  .00000670  00000+0  71493-4 0  9992
2 39416  97.7723 151.5946 0037292 108.9782 251.5484 14.91622296685795
APRIZESAT 8             
1 39425U 13066K   26198.81217198  .00000341  00000+0  42945-4 0  9997
2 39425  97.8230 145.8560 0045725 183.2261 176.8667 14.87698360684224
BUGSAT-1 (TITA)         
1 40014U 14033E   26198.93136586  .00003547  00000+0  18726-3 0  9992
2 40014  98.0432 293.2853 0028947  76.8773 283.5685 15.15898611660494
SAUDISAT 4              
1 40016U 14033G   26198.88984984  .00000222  00000+0  36141-4 0  9990
2 40016  97.7622 343.9696 0044030 335.2095  24.7001 14.79577128650617
APRIZESAT 9             
1 40018U 14033J   26198.88631721  .00000299  00000+0  51240-4 0  9991
2 40018  97.9098 331.3407 0067499 101.4796 259.4003 14.74254613648087
APRIZESAT 10            
1 40019U 14033K   26198.87490206  .00000297  00000+0  54533-4 0  9998
2 40019  97.9685 325.1557 0078950 174.8027 185.4017 14.70912792646763
TECHDEMOSAT-1 (TDS-1)   
1 40076U 14037H   26198.96687341  .00003630  00000+0  20592-3 0  9994
2 40076  98.3830 194.2429 0007182 150.1928 209.9711 15.13701731652882
TECHNOSAT               
1 42829U 17042E   26198.89882193  .00001409  00000+0  10287-3 0  9997
2 42829  97.4322 355.3966 0017167 354.7166   5.3877 15.05119939491327
FLYING LAPTOP           
1 42831U 17042G   26198.91270994  .00002033  00000+0  16186-3 0  9991
2 42831  97.4820 353.2918 0019597  23.8192 336.3935 15.01324030491068
HAWK-A                  
1 43765U 18099H   26198.07570926  .00003796  00000+0  15258-3 0  9992
2 43765  97.3893 249.9255 0034934 177.4083 182.7343 15.24979113417658
HAWK-B                  
1 43794U 18099AN  26198.59303626  .00002916  00000+0  12492-3 0  9992
2 43794  97.3942 249.7872 0031628 193.5822 166.4567 15.23130659417666
HAWK-C                  
1 43799U 18099AT  26198.90050595  .00004831  00000+0  17269-3 0  9991
2 43799  97.3869 251.8049 0040579 174.2789 185.8923 15.28516114418607
SALSAT                  
1 46495U 20068K   26198.94923409  .00004039  00000+0  14103-3 0  9997
2 46495  97.8860 203.8975 0009519 182.9906 177.1278 15.30194622320068
HAWK-2C                 
1 47502U 21006CT  26198.72898117  .00003389  00000+0  10199-3 0  9991
2 47502  97.2260 242.4339 0008684  93.6942 266.5295 15.35007178304180
HAWK-2A                 
1 47505U 21006CW  26198.73116959  .00003910  00000+0  11726-3 0  9999
2 47505  97.2301 243.1316 0008215  96.9770 263.2409 15.35029192304188
HAWK-2B                 
1 47508U 21006CZ  26198.52893606  .00003810  00000+0  11384-3 0  9999
2 47508  97.2173 241.2174 0008769  95.9169 264.3074 15.35155089304156
HAWK-3B                 
1 48931U 21059BE  26198.07364354  .00028474  00000+0  21904-3 0  9993
2 48931  97.6630  37.6634 0004664 191.2793 168.8366 15.71981880282546
HAWK-3C                 
1 48948U 21059BX  26198.83718932  .00027529  00000+0  21141-3 0  9993
2 48948  97.6748  44.2399 0005017 189.0742 171.0430 15.72026212282669
HAWK-3A                 
1 48957U 21059CG  26198.83707788  .00028404  00000+0  21810-3 0  9996
2 48957  97.6690  41.4199 0004910 191.1892 168.9263 15.72024802282665
HAWK-5C                 
1 52754U 22057Y   26198.92928269  .00011263  00000+0  18634-3 0  9999
2 52754  97.6625   0.6078 0002520 333.7268  26.3856 15.52385881231116
HAWK-5B                 
1 52756U 22057AA  26198.92910466  .00011032  00000+0  18258-3 0  9997
2 52756  97.6637 358.9618 0003227 319.5423  40.5588 15.52382007231117
